NORAD_CAT_ID,OBJECT_NAME,OBJECT_TYPE,EPOCH,MEAN_MOTION,ECCENTRICITY,INCLINATION,RA_OF_ASC_NODE,ARG_OF_PERICENTER,MEAN_ANOMALY,BSTAR,MEAN_MOTION_DOT,MEAN_MOTION_DDOT,TLE_LINE0,TLE_LINE1,TLE_LINE2,SEMIMAJOR_AXIS,PERIOD,APOGEE,PERIGEE,DECAYED
52483.0,STARLINK-3875,PAYLOAD,2023-05-03 19:42:11,15.08840694,0.0001188,53.2191,41.7646,97.7866,262.3261,2.4274e-05,9.9e-07,0.0,0 STARLINK-3875,1 52483U 22049AJ  23123.82096368  .00000099  00000-0  24274-4 0  9993,2 52483  53.2191  41.7646 0001188  97.7866 262.3261 15.08840694 56495,6917.878,95.438,540.565,538.921,0.0
52483.0,STARLINK-3875,PAYLOAD,2023-05-04 11:36:02,15.08844508,0.0001143,53.219,38.7905,86.7947,273.3176,1.7744e-05,-5e-08,0.0,0 STARLINK-3875,1 52483U 22049AJ  23124.48336064 -.00000005  00000-0  17744-4 0  9998,2 52483  53.2190  38.7905 0001143  86.7947 273.3176 15.08844508 55514,6917.867,95.437,540.522,538.941,0.0
52483.0,STARLINK-3875,PAYLOAD,2023-05-04 17:57:35,15.08839579,0.000128,53.2184,37.6006,90.0477,270.0662,3.3571e-05,2.46e-06,0.0,0 STARLINK-3875,1 52483U 22049AJ  23124.74832467  .00000246  00000-0  33571-4 0  9997,2 52483  53.2184  37.6006 0001280  90.0477 270.0662 15.08839579 56635,6917.882,95.438,540.632,538.861,0.0
52483.0,STARLINK-3875,PAYLOAD,2023-05-05 03:29:53,15.08848665,0.000123,53.2188,35.8169,88.3728,271.7405,8.3667e-05,1.044e-05,0.0,0 STARLINK-3875,1 52483U 22049AJ  23125.14575644  .00001044  00000-0  83667-4 0  9991,2 52483  53.2188  35.8169 0001230  88.3728 271.7405 15.08848665 56698,6917.854,95.437,540.57,538.868,0.0
52483.0,STARLINK-3875,PAYLOAD,2023-05-06 00:09:54,15.08839826,0.0001173,53.2185,31.9511,93.4676,266.6451,1.0957e-05,-1.13e-06,0.0,0 STARLINK-3875,1 52483U 22049AJ  23126.00688520 -.00000113  00000-0  10957-4 0  9994,2 52483  53.2185  31.9511 0001173  93.4676 266.6451 15.08839826 55746,6917.881,95.438,540.557,538.934,0.0
52483.0,STARLINK-3875,PAYLOAD,2023-05-06 01:45:17,15.08843132,0.0001144,53.2183,31.6537,86.9967,273.1156,4.5166e-05,4.31e-06,0.0,0 STARLINK-3875,1 52483U 22049AJ  23126.07312343  .00000431  00000-0  45166-4 0  9990,2 52483  53.2183  31.6537 0001144  86.9967 273.1156 15.08843132 56838,6917.871,95.437,540.527,538.944,0.0
52483.0,STARLINK-3875,PAYLOAD,2023-05-07 03:11:27,15.08859234,0.0001076,53.2171,26.8954,91.9371,268.1744,0.00035008,5.291e-05,0.0,0 STARLINK-3875,1 52483U 22049AJ  23127.13295416  .00005291  00000-0  35008-3 0  9991,2 52483  53.2171  26.8954 0001076  91.9371 268.1744 15.08859234 55918,6917.822,95.436,540.431,538.942,0.0
52483.0,STARLINK-3875,PAYLOAD,2023-05-07 20:40:43,15.0882789,0.0001035,53.2172,23.6247,106.2275,253.8831,-5.3112e-05,-1.133e-05,0.0,0 STARLINK-3875,1 52483U 22049AJ  23127.86161390 -.00001133  00000-0 -53112-4 0  9994,2 52483  53.2172  23.6247 0001035 106.2275 253.8831 15.08827890 56021,6917.917,95.438,540.498,539.066,0.0
52483.0,STARLINK-3875,PAYLOAD,2023-05-07 22:16:06,15.08828844,9.81e-05,53.2173,23.3276,97.4606,262.6497,-8.1655e-05,-1.587e-05,0.0,0 STARLINK-3875,1 52483U 22049AJ  23127.92785229 -.00001587  00000-0 -81655-4 0  9990,2 52483  53.2173  23.3276 0000981  97.4606 262.6497 15.08828844 57116,6917.914,95.438,540.458,539.101,0.0
52483.0,STARLINK-3875,PAYLOAD,2023-05-08 03:02:15,15.08836788,9.67e-05,53.2175,22.435,102.447,257.6631,0.00013379,1.842e-05,0.0,0 STARLINK-3875,1 52483U 22049AJ  23128.12657043  .00001842  00000-0  13379-3 0  9994,2 52483  53.2175  22.4350 0000967 102.4470 257.6631 15.08836788 56064,6917.89,95.438,540.424,539.086,0.0
52483.0,STARLINK-3875,PAYLOAD,2023-05-08 22:06:53,15.08855304,8.91e-05,53.2173,18.8672,107.1696,252.9394,0.0010365,0.00016253,0.0,0 STARLINK-3875,1 52483U 22049AJ  23128.92145085  .00016253  00000-0  10365-2 0  9993,2 52483  53.2173  18.8672 0000891 107.1696 252.9394 15.08855304 57268,6917.834,95.437,540.315,539.082,0.0
52483.0,STARLINK-3875,PAYLOAD,2023-05-08 23:42:16,15.08860705,9e-05,53.2172,18.5701,108.9018,251.2072,0.0011791,0.00018538,0.0,0 STARLINK-3875,1 52483U 22049AJ  23128.98768957  .00018538  00000-0  11791-2 0  9990,2 52483  53.2172  18.5701 0000900 108.9018 251.2072 15.08860705 57272,6917.817,95.436,540.305,539.059,0.0
52483.0,STARLINK-3875,PAYLOAD,2023-05-10 02:43:49,15.08852445,7.66e-05,53.2168,13.5142,85.4663,274.6417,0.0003196,4.804e-05,0.0,0 STARLINK-3875,1 52483U 22049AJ  23130.11376633  .00004804  00000-0  31960-3 0  9996,2 52483  53.2168  13.5142 0000766  85.4663 274.6417 15.08852445 57449,6917.842,95.437,540.237,539.177,0.0
52483.0,STARLINK-3875,PAYLOAD,2023-05-10 23:23:50,15.08846354,0.0001057,53.2165,9.6495,76.0783,284.0327,0.00011935,1.612e-05,0.0,0 STARLINK-3875,1 52483U 22049AJ  23130.97488779  .00001612  00000-0  11935-3 0  9999,2 52483  53.2165   9.6495 0001057  76.0783 284.0327 15.08846354 56497,6917.861,95.437,540.457,538.995,0.0
52483.0,STARLINK-3875,PAYLOAD,2023-05-11 21:39:14,15.0884338,0.0001219,53.2166,5.4869,70.3495,289.7628,0.00017494,2.498e-05,0.0,0 STARLINK-3875,1 52483U 22049AJ  23131.90225207  .00002498  00000-0  17494-3 0  9997,2 52483  53.2166   5.4869 0001219  70.3495 289.7628 15.08843380 56632,6917.87,95.437,540.578,538.892,0.0
52483.0,STARLINK-3875,PAYLOAD,2023-05-11 23:14:37,15.08843538,8.71e-05,53.2164,5.1882,98.8377,261.2714,0.00016173,2.287e-05,0.0,0 STARLINK-3875,1 52483U 22049AJ  23131.96849000  .00002287  00000-0  16173-3 0  9995,2 52483  53.2164   5.1882 0000871  98.8377 261.2714 15.08843538 57726,6917.87,95.437,540.337,539.132,0.0
52483.0,STARLINK-3875,PAYLOAD,2023-05-12 21:30:01,15.08844722,8.99e-05,53.2162,1.0241,95.0411,265.0683,0.0002129,3.103e-05,0.0,0 STARLINK-3875,1 52483U 22049AJ  23132.89585302  .00003103  00000-0  21290-3 0  9994,2 52483  53.2162   1.0241 0000899  95.0411 265.0683 15.08844722 56784,6917.866,95.437,540.353,539.109,0.0
52483.0,STARLINK-3875,PAYLOAD,2023-05-13 00:40:47,15.08850432,9.38e-05,53.2165,0.4292,88.3229,271.7871,0.00034331,5.182e-05,0.0,0 STARLINK-3875,1 52483U 22049AJ  23133.02833173  .00005182  00000-0  34331-3 0  9991,2 52483  53.2165   0.4292 0000938  88.3229 271.7871 15.08850432 57882,6917.849,95.437,540.362,539.065,0.0
52483.0,STARLINK-3875,PAYLOAD,2023-05-13 21:20:48,15.08846281,0.0001012,53.2161,356.563,99.0424,261.0683,0.0002077,3.02e-05,0.0,0 STARLINK-3875,1 52483U 22049AJ  23133.88945453  .00003020  00000-0  20770-3 0  9991,2 52483  53.2161 356.5630 0001012  99.0424 261.0683 15.08846281 58015,6917.861,95.437,540.426,539.026,0.0
52483.0,STARLINK-3875,PAYLOAD,2023-05-14 02:06:58,15.08852402,0.0001032,53.2162,355.6709,95.9272,264.1838,0.00031329,4.703e-05,0.0,0 STARLINK-3875,1 52483U 22049AJ  23134.08817161  .00004703  00000-0  31329-3 0  9999,2 52483  53.2162 355.6709 0001032  95.9272 264.1838 15.08852402 56961,6917.842,95.437,540.421,538.994,0.0
52483.0,STARLINK-3875,PAYLOAD,2023-05-14 21:11:35,15.08846488,9.16e-05,53.2158,352.1057,87.7901,272.3196,9.2226e-05,1.181e-05,0.0,0 STARLINK-3875,1 52483U 22049AJ  23134.88305227  .00001181  00000-0  92226-4 0  9993,2 52483  53.2158 352.1057 0000916  87.7901 272.3196 15.08846488 58161,6917.861,95.437,540.359,539.092,0.0
52483.0,STARLINK-3875,PAYLOAD,2023-05-15 14:40:50,15.08839315,9.48e-05,53.2157,348.8345,100.6549,259.455,-2.3077e-05,-6.55e-06,0.0,0 STARLINK-3875,1 52483U 22049AJ  23135.61169602 -.00000655  00000-0 -23077-4 0  9995,2 52483  53.2157 348.8345 0000948 100.6549 259.4550 15.08839315 57193,6917.882,95.438,540.403,539.092,0.0
52483.0,STARLINK-3875,PAYLOAD,2023-05-15 21:02:23,15.08827648,8.59e-05,53.217,347.647,91.7679,268.3411,-0.00018667,-3.256e-05,0.0,0 STARLINK-3875,1 52483U 22049AJ  23135.87666297 -.00003256  00000-0 -18667-3 0  9993,2 52483  53.2170 347.6470 0000859  91.7679 268.3411 15.08827648 57235,6917.918,95.438,540.377,539.189,0.0
52483.0,STARLINK-3875,PAYLOAD,2023-05-16 12:56:14,15.08836912,0.000255,53.2182,344.671,102.712,257.4157,-5.031e-06,-3.69e-06,0.0,0 STARLINK-3875,1 52483U 22049AJ  23136.53906127 -.00000369  00000-0 -50310-5 0  9991,2 52483  53.2182 344.6710 0002550 102.7120 257.4157 15.08836912 57337,6917.89,95.438,541.519,537.991,0.0
52483.0,STARLINK-3875,PAYLOAD,2023-05-16 20:53:10,15.08843108,7e-05,53.217,343.1844,94.6192,265.488,8.9251e-05,1.133e-05,0.0,0 STARLINK-3875,1 52483U 22049AJ  23136.87025783  .00001133  00000-0  89251-4 0  9991,2 52483  53.2170 343.1844 0000700  94.6192 265.4880 15.08843108 58461,6917.871,95.437,540.22,539.252,0.0
52483.0,STARLINK-3875,PAYLOAD,2023-05-17 00:03:56,15.08847599,8e-05,53.2167,342.5885,93.0473,267.0611,0.00013434,1.851e-05,0.0,0 STARLINK-3875,1 52483U 22049AJ  23137.00273444  .00001851  00000-0  13434-3 0  9992,2 52483  53.2167 342.5885 0000800  93.0473 267.0611 15.08847599 57402,6917.857,95.437,540.276,539.169,0.0
52483.0,STARLINK-3875,PAYLOAD,2023-05-17 06:25:29,15.08840441,7.97e-05,53.216,341.3983,74.7105,285.3975,8.694e-05,1.096e-05,0.0,0 STARLINK-3875,1 52483U 22049AJ  23137.26769969  .00001096  00000-0  86940-4 0  9996,2 52483  53.2160 341.3983 0000797  74.7105 285.3975 15.08840441 57443,6917.879,95.438,540.295,539.193,0.0
52483.0,STARLINK-3875,PAYLOAD,2023-05-17 20:43:57,15.08841523,6.58e-05,53.2157,338.7238,80.7513,279.3553,0.00025069,3.704e-05,0.0,0 STARLINK-3875,1 52483U 22049AJ  23137.86385989  .00003704  00000-0  25069-3 0  9990,2 52483  53.2157 338.7238 0000658  80.7513 279.3553 15.08841523 58615,6917.876,95.437,540.196,539.286,0.0
52483.0,STARLINK-3875,PAYLOAD,2023-05-18 12:37:48,15.08842328,7.17e-05,53.2152,335.7507,79.482,280.6253,5.9642e-05,6.62e-06,0.0,0 STARLINK-3875,1 52483U 22049AJ  23138.52625869  .00000662  00000-0  59642-4 0  9993,2 52483  53.2152 335.7507 0000717  79.4820 280.6253 15.08842328 57635,6917.873,95.437,540.234,539.242,0.0
52483.0,STARLINK-3875,PAYLOAD,2023-05-18 14:13:12,15.08837717,7.77e-05,53.2157,335.4518,70.751,289.3566,-6.7527e-05,-1.362e-05,0.0,0 STARLINK-3875,1 52483U 22049AJ  23138.59250134 -.00001362  00000-0 -67527-4 0  9990,2 52483  53.2157 335.4518 0000777  70.7510 289.3566 15.08837717 58725,6917.887,95.438,540.29,539.215,0.0
